NOAA 15                 
1 25338U 98030A   24080.58136918  .00000320  00000+0  15077-3 0  9993
2 25338  98.5791 109.5224 0009696 218.3684 141.6807 14.26515202344553
NOAA 18                 
1 28654U 05018A   24080.49396285  .00000345  00000+0  20802-3 0  9995
2 28654  98.8787 158.1872 0013335 317.2555  42.7579 14.13147008970648
NOAA 19                 
1 33591U 09005A   24080.57468255  .00000333  00000+0  20314-3 0  9992
2 33591  99.0586 135.3996 0014024 178.2130 181.9094 14.12949267778851
METOP-B                 
1 38771U 12049A   24080.48549407  .00000233  00000+0  12608-3 0  9994
2 38771  98.6383 139.6575 0000509  92.3719 267.7517 14.21487413596950
SARAL                   
1 39086U 13009A   24080.57651037  .00000286  00000+0  12209-3 0  9999
2 39086  98.5509 266.9174 0002113 155.4454 204.6831 14.32365081578393
METOP-C                 
1 43689U 18087A   24080.59240467  .00000225  00000+0  12291-3 0  9991
2 43689  98.6902 140.9778 0001976   2.1982 357.9204 14.21499240278538
ANGELS                  
1 44876U 19092D   24080.50574229  .00009007  00000+0  36003-3 0  9998
2 44876  97.4771 269.0395 0008971 272.7467  87.2744 15.25312003235835
GAZELLE                 
1 54023U 22127A   24080.51555566  .00000342  00000+0  11725-3 0  9997
2 54023  98.3414  76.7937 0014223 135.2978 224.9360 14.42023642 76345
EOS-6 (OCEANSAT-3)      
1 54361U 22158A   24080.57582641  .00000711  00000+0  20750-3 0  9994
2 54361  98.3476 178.8221 0001456 110.9564 249.1785 14.47006386 69458
